[
    {
        "Altitude(m)": 605470.7339979935,
        "Argument of Periapsis(deg)": 0.0,
        "Eccentricity": 0.0,
        "Inclination(deg)": 60.0,
        "Latitude(deg)": 27.9880243183252,
        "Longitude(deg)": -77.73706454464467,
        "Mean Anomaly(deg)": -212.7273,
        "RAAN(deg)": 220.00000000000003,
        "Satellite Name": "Test1 977",
        "Satellite Number": 977,
        "Semi-Major Axis(m)": 6980739.136638005,
        "Time(s)": 0
    },
    {
        "Altitude(m)": 605395.7726128394,
        "Argument of Periapsis(deg)": 0.00010418945913296404,
        "Eccentricity": 0.0,
        "Inclination(deg)": 60.0,
        "Latitude(deg)": 27.473715137619234,
        "Longitude(deg)": -77.38387709349792,
        "Mean Anomaly(deg)": -212.10719385453817,
        "RAAN(deg)": 219.99957995086027,
        "Satellite Name": "Test1 977",
        "Satellite Number": 977,
        "Semi-Major Axis(m)": 6980739.136638005,
        "Time(s)": 10
    },
    {
        "Altitude(m)": 605322.6139063833,
        "Argument of Periapsis(deg)": 0.0002083789182659281,
        "Eccentricity": 0.0,
        "Inclination(deg)": 60.0,
        "Latitude(deg)": 26.95826016698503,
        "Longitude(deg)": -77.03433782052379,
        "Mean Anomaly(deg)": -211.48708770907632,
        "RAAN(deg)": 219.9991599017205,
        "Satellite Name": "Test1 977",
        "Satellite Number": 977,
        "Semi-Major Axis(m)": 6980739.136638005,
        "Time(s)": 20
    },
    {
        "Altitude(m)": 605251.3135528358,
        "Argument of Periapsis(deg)": 0.00031256837739889213,
        "Eccentricity": 0.0,
        "Inclination(deg)": 60.0,
        "Latitude(deg)": 26.441693908649057,
        "Longitude(deg)": -76.68834207663862,
        "Mean Anomaly(deg)": -210.86698156361453,
        "RAAN(deg)": 219.99873985258077,
        "Satellite Name": "Test1 977",
        "Satellite Number": 977,
        "Semi-Major Axis(m)": 6980739.136638005,
        "Time(s)": 30
    },
    {
        "Altitude(m)": 605181.9264984459,
        "Argument of Periapsis(deg)": 0.0004167578365318562,
        "Eccentricity": 0.0,
        "Inclination(deg)": 60.0,
        "Latitude(deg)": 25.92405001055146,
        "Longitude(deg)": -76.34578694521277,
        "Mean Anomaly(deg)": -210.2468754181527,
        "RAAN(deg)": 219.99831980344106,
        "Satellite Name": "Test1 977",
        "Satellite Number": 977,
        "Semi-Major Axis(m)": 6980739.136638005,
        "Time(s)": 40
    },
    {
        "Altitude(m)": 605114.50693258,
        "Argument of Periapsis(deg)": 0.0005209472956648203,
        "Eccentricity": 0.0,
        "Inclination(deg)": 60.0,
        "Latitude(deg)": 25.405361298899802,
        "Longitude(deg)": -76.00657218594812,
        "Mean Anomaly(deg)": -209.62676927269084,
        "RAAN(deg)": 219.9978997543013,
        "Satellite Name": "Test1 977",
        "Satellite Number": 977,
        "Semi-Major Axis(m)": 6980739.136638005,
        "Time(s)": 50
    },
    {
        "Altitude(m)": 605049.1082590889,
        "Argument of Periapsis(deg)": 0.0006251367547977843,
        "Eccentricity": 0.0,
        "Inclination(deg)": 60.0,
        "Latitude(deg)": 24.885659809606263,
        "Longitude(deg)": -75.67059966668145,
        "Mean Anomaly(deg)": -209.00666312722902,
        "RAAN(deg)": 219.99747970516154,
        "Satellite Name": "Test1 977",
        "Satellite Number": 977,
        "Semi-Major Axis(m)": 6980739.136638005,
        "Time(s)": 60
    },
    {
        "Altitude(m)": 604985.7830680283,
        "Argument of Periapsis(deg)": 0.0007293262139307483,
        "Eccentricity": 0.0,
        "Inclination(deg)": 60.0,
        "Latitude(deg)": 24.364976818648298,
        "Longitude(deg)": -75.33777279604553,
        "Mean Anomaly(deg)": -208.38655698176723,
        "RAAN(deg)": 219.9970596560218,
        "Satellite Name": "Test1 977",
        "Satellite Number": 977,
        "Semi-Major Axis(m)": 6980739.136638005,
        "Time(s)": 70
    },
    {
        "Altitude(m)": 604924.583107741,
        "Argument of Periapsis(deg)": 0.0008335156730637124,
        "Eccentricity": 0.0,
        "Inclination(deg)": 60.0,
        "Latitude(deg)": 23.843342871388934,
        "Longitude(deg)": -75.00799746990636,
        "Mean Anomaly(deg)": -207.76645083630538,
        "RAAN(deg)": 219.9966396068821,
        "Satellite Name": "Test1 977",
        "Satellite Number": 977,
        "Semi-Major Axis(m)": 6980739.136638005,
        "Time(s)": 80
    },
    {
        "Altitude(m)": 604865.5592573172,
        "Argument of Periapsis(deg)": 0.0009377051321966765,
        "Eccentricity": 0.0,
        "Inclination(deg)": 60.0,
        "Latitude(deg)": 23.320787810897105,
        "Longitude(deg)": -74.6811815058753,
        "Mean Anomaly(deg)": -207.14634469084353,
        "RAAN(deg)": 219.9962195577423,
        "Satellite Name": "Test1 977",
        "Satellite Number": 977,
        "Semi-Major Axis(m)": 6980739.136638005,
        "Time(s)": 90
    },
    {
        "Altitude(m)": 604808.7614994188,
        "Argument of Periapsis(deg)": 0.0010418945913296407,
        "Eccentricity": 0.0,
        "Inclination(deg)": 60.0,
        "Latitude(deg)": 22.797340805301893,
        "Longitude(deg)": -74.35723407879483,
        "Mean Anomaly(deg)": -206.52623854538172,
        "RAAN(deg)": 219.9957995086026,
        "Satellite Name": "Test1 977",
        "Satellite Number": 977,
        "Semi-Major Axis(m)": 6980739.136638005,
        "Time(s)": 100
    },
    {
        "Altitude(m)": 604754.2388935114,
        "Argument of Periapsis(deg)": 0.0011460840504626045,
        "Eccentricity": 0.0,
        "Inclination(deg)": 60.0,
        "Latitude(deg)": 22.273030374217942,
        "Longitude(deg)": -74.03606667009846,
        "Mean Anomaly(deg)": -205.90613239991984,
        "RAAN(deg)": 219.99537945946284,
        "Satellite Name": "Test1 977",
        "Satellite Number": 977,
        "Semi-Major Axis(m)": 6980739.136638005,
        "Time(s)": 110
    },
    {
        "Altitude(m)": 604702.0395495332,
        "Argument of Periapsis(deg)": 0.0012502735095955685,
        "Eccentricity": 0.0,
        "Inclination(deg)": 60.0,
        "Latitude(deg)": 21.747884414277387,
        "Longitude(deg)": -73.71759250531534,
        "Mean Anomaly(deg)": -205.28602625445802,
        "RAAN(deg)": 219.99495941032308,
        "Satellite Name": "Test1 977",
        "Satellite Number": 977,
        "Semi-Major Axis(m)": 6980739.136638005,
        "Time(s)": 120
    },
    {
        "Altitude(m)": 604652.2106019642,
        "Argument of Periapsis(deg)": 0.0013544629687285324,
        "Eccentricity": 0.0,
        "Inclination(deg)": 60.0,
        "Latitude(deg)": 21.221930223801518,
        "Longitude(deg)": -73.40172599260458,
        "Mean Anomaly(deg)": -204.66592010899623,
        "RAAN(deg)": 219.99453936118334,
        "Satellite Name": "Test1 977",
        "Satellite Number": 977,
        "Semi-Major Axis(m)": 6980739.136638005,
        "Time(s)": 130
    },
    {
        "Altitude(m)": 604604.7981843445,
        "Argument of Periapsis(deg)": 0.0014586524278614966,
        "Eccentricity": 0.0,
        "Inclination(deg)": 60.0,
        "Latitude(deg)": 20.69519452664601,
        "Longitude(deg)": -73.08838367519739,
        "Mean Anomaly(deg)": -204.04581396353436,
        "RAAN(deg)": 219.99411931204364,
        "Satellite Name": "Test1 977",
        "Satellite Number": 977,
        "Semi-Major Axis(m)": 6980739.136638005,
        "Time(s)": 140
    },
    {
        "Altitude(m)": 604559.8474042646,
        "Argument of Periapsis(deg)": 0.0015628418869944607,
        "Eccentricity": 0.0,
        "Inclination(deg)": 60.0,
        "Latitude(deg)": 20.16770349525271,
        "Longitude(deg)": -72.7774836720049,
        "Mean Anomaly(deg)": -203.42570781807254,
        "RAAN(deg)": 219.99369926290387,
        "Satellite Name": "Test1 977",
        "Satellite Number": 977,
        "Semi-Major Axis(m)": 6980739.136638005,
        "Time(s)": 150
    },
    {
        "Altitude(m)": 604517.4023188087,
        "Argument of Periapsis(deg)": 0.0016670313461274247,
        "Eccentricity": 0.0,
        "Inclination(deg)": 60.0,
        "Latitude(deg)": 19.639482772938397,
        "Longitude(deg)": -72.46894511926075,
        "Mean Anomaly(deg)": -202.80560167261072,
        "RAAN(deg)": 219.9932792137641,
        "Satellite Name": "Test1 977",
        "Satellite Number": 977,
        "Semi-Major Axis(m)": 6980739.136638005,
        "Time(s)": 160
    },
    {
        "Altitude(m)": 604477.5059104944,
        "Argument of Periapsis(deg)": 0.0017712208052603888,
        "Eccentricity": 0.0,
        "Inclination(deg)": 60.0,
        "Latitude(deg)": 19.110557495452564,
        "Longitude(deg)": -72.16268912606546,
        "Mean Anomaly(deg)": -202.18549552714893,
        "RAAN(deg)": 219.99285916462438,
        "Satellite Name": "Test1 977",
        "Satellite Number": 977,
        "Semi-Major Axis(m)": 6980739.136638005,
        "Time(s)": 170
    },
    {
        "Altitude(m)": 604440.2000636891,
        "Argument of Periapsis(deg)": 0.001875410264393353,
        "Eccentricity": 0.0,
        "Inclination(deg)": 60.0,
        "Latitude(deg)": 18.58095231183274,
        "Longitude(deg)": -71.85863821807773,
        "Mean Anomaly(deg)": -201.56538938168708,
        "RAAN(deg)": 219.99243911548467,
        "Satellite Name": "Test1 977",
        "Satellite Number": 977,
        "Semi-Major Axis(m)": 6980739.136638005,
        "Time(s)": 180
    },
    {
        "Altitude(m)": 604405.5255415787,
        "Argument of Periapsis(deg)": 0.0019795997235263173,
        "Eccentricity": 0.0,
        "Inclination(deg)": 60.0,
        "Latitude(deg)": 18.0506914045883,
        "Longitude(deg)": -71.55671578221312,
        "Mean Anomaly(deg)": -200.94528323622524,
        "RAAN(deg)": 219.9920190663449,
        "Satellite Name": "Test1 977",
        "Satellite Number": 977,
        "Semi-Major Axis(m)": 6980739.136638005,
        "Time(s)": 190
    }
]